start=new Date('2022-03-05T00:00:00.000Z').valueOf();
sats=[{"PERIAPSIS":"546.266","CLASSIFICATION_TYPE":"U","SITE":"AFETR","LAUNCH_DATE":"2021-05-26","EPOCH":"2022-03-04T18:14:54.288384","ECCENTRICITY":"0.00013980","OBJECT_NAME":"STARLINK-2763","MEAN_ANOMALY":"279.4605","OBJECT_ID":"2021-044AJ","CENTER_NAME":"EARTH","PERIOD":"95.593","EPHEMERIS_TYPE":"0","DECAY_DATE":null,"NORAD_CAT_ID":"48670","RA_OF_ASC_NODE":"212.4188","TLE_LINE2":"2 48670  53.0541 212.4188 0001398  80.6542 279.4605 15.06393117 42899","ARG_OF_PERICENTER":"80.6542","SEMIMAJOR_AXIS":"6925.370","MEAN_MOTION_DDOT":"0.0000000000000","INCLINATION":"53.0541","COUNTRY_CODE":"US","REV_AT_EPOCH":"4289","APOAPSIS":"548.203","REF_FRAME":"TEME","MEAN_ELEMENT_THEORY":"SGP4","BSTAR":"0.00006850800000","FILE":"3344863","TLE_LINE1":"1 48670U 21044AJ  22063.76035056  .00000739  00000-0  68508-4 0  9991","TIME_SYSTEM":"UTC","OBJECT_TYPE":"PAYLOAD","MEAN_MOTION":"15.06393117","RCS_SIZE":"LARGE","ELEMENT_SET_NO":"999","MEAN_MOTION_DOT":"0.00000739","GP_ID":"197905704"},{"TLE_LINE2":"2 48671  53.0551 212.1535 0001446  70.4691 289.6455 15.06402269 42907","RA_OF_ASC_NODE":"212.1535","NORAD_CAT_ID":"48671","DECAY_DATE":null,"EPHEMERIS_TYPE":"0","PERIOD":"95.592","OBJECT_NAME":"STARLINK-2745","MEAN_ANOMALY":"289.6455","OBJECT_ID":"2021-044AK","CENTER_NAME":"EARTH","ECCENTRICITY":"0.00014460","EPOCH":"2022-03-04T19:45:07.844544","LAUNCH_DATE":"2021-05-26","SITE":"AFETR","CLASSIFICATION_TYPE":"U","PERIAPSIS":"546.205","GP_ID":"197905954","MEAN_MOTION_DOT":"-0.00000571","ELEMENT_SET_NO":"999","RCS_SIZE":"LARGE","OBJECT_TYPE":"PAYLOAD","MEAN_MOTION":"15.06402269","TIME_SYSTEM":"UTC","TLE_LINE1":"1 48671U 21044AK  22063.82300746 -.00000571  00000-0 -19404-4 0  9997","FILE":"3344863","BSTAR":"-0.00001940400000","APOAPSIS":"548.208","REF_FRAME":"TEME","MEAN_ELEMENT_THEORY":"SGP4","REV_AT_EPOCH":"4290","COUNTRY_CODE":"US","INCLINATION":"53.0551","MEAN_MOTION_DDOT":"0.0000000000000","SEMIMAJOR_AXIS":"6925.342","ARG_OF_PERICENTER":"70.4691"},{"TIME_SYSTEM":"UTC","TLE_LINE1":"1 48672U 21044AL  22063.81931969  .00007167  00000-0  49937-3 0  9993","OBJECT_TYPE":"PAYLOAD","MEAN_MOTION":"15.06413063","RCS_SIZE":"LARGE","ELEMENT_SET_NO":"999","MEAN_MOTION_DOT":"0.00007167","GP_ID":"197907205","ARG_OF_PERICENTER":"74.3000","SEMIMAJOR_AXIS":"6925.309","MEAN_MOTION_DDOT":"0.0000000000000","COUNTRY_CODE":"US","INCLINATION":"53.0545","REV_AT_EPOCH":"4290","APOAPSIS":"547.993","MEAN_ELEMENT_THEORY":"SGP4","REF_FRAME":"TEME","BSTAR":"0.00049937000000","FILE":"3344863","EPHEMERIS_TYPE":"0","DECAY_DATE":null,"NORAD_CAT_ID":"48672","RA_OF_ASC_NODE":"212.1654","TLE_LINE2":"2 48672  53.0545 212.1654 0001183  74.3000 285.8119 15.06413063 42907","PERIAPSIS":"546.354","CLASSIFICATION_TYPE":"U","SITE":"AFETR","LAUNCH_DATE":"2021-05-26","EPOCH":"2022-03-04T19:39:49.221216","ECCENTRICITY":"0.00011830","MEAN_ANOMALY":"285.8119","OBJECT_NAME":"STARLINK-2705","OBJECT_ID":"2021-044AL","CENTER_NAME":"EARTH","PERIOD":"95.591"},{"OBJECT_TYPE":"PAYLOAD","MEAN_MOTION":"15.06397225","TIME_SYSTEM":"UTC","TLE_LINE1":"1 48673U 21044AM  22063.81563989  .00001094  00000-0  92310-4 0  9994","RCS_SIZE":"LARGE","MEAN_MOTION_DOT":"0.00001094","ELEMENT_SET_NO":"999","GP_ID":"197907448","ARG_OF_PERICENTER":"74.7925","COUNTRY_CODE":"US","INCLINATION":"53.0552","MEAN_MOTION_DDOT":"0.0000000000000","SEMIMAJOR_AXIS":"6925.357","REV_AT_EPOCH":"4290","FILE":"3344863","BSTAR":"0.00009231000000","APOAPSIS":"548.069","MEAN_ELEMENT_THEORY":"SGP4","REF_FRAME":"TEME","EPHEMERIS_TYPE":"0","DECAY_DATE":null,"NORAD_CAT_ID":"48673","TLE_LINE2":"2 48673  53.0552 212.1762 0001223  74.7925 285.3199 15.06397225 42905","RA_OF_ASC_NODE":"212.1762","SITE":"AFETR","CLASSIFICATION_TYPE":"U","PERIAPSIS":"546.375","EPOCH":"2022-03-04T19:34:31.286496","LAUNCH_DATE":"2021-05-26","MEAN_ANOMALY":"285.3199","OBJECT_ID":"2021-044AM","OBJECT_NAME":"STARLINK-2711","CENTER_NAME":"EARTH","ECCENTRICITY":"0.00012230","PERIOD":"95.592"},{"DECAY_DATE":null,"EPHEMERIS_TYPE":"0","TLE_LINE2":"2 48674  53.0549 212.7902 0001322  73.3770 286.7364 15.06404094 42886","RA_OF_ASC_NODE":"212.7902","NORAD_CAT_ID":"48674","EPOCH":"2022-03-04T16:18:07.197408","LAUNCH_DATE":"2021-05-26","SITE":"AFETR","CLASSIFICATION_TYPE":"U","PERIAPSIS":"546.285","PERIOD":"95.592","MEAN_ANOMALY":"286.7364","OBJECT_NAME":"STARLINK-2712","CENTER_NAME":"EARTH","OBJECT_ID":"2021-044AN","ECCENTRICITY":"0.00013220","RCS_SIZE":"LARGE","MEAN_MOTION":"15.06404094","OBJECT_TYPE":"PAYLOAD","TLE_LINE1":"1 48674U 21044AN  22063.67924997  .00002617  00000-0  19450-3 0  9994","TIME_SYSTEM":"UTC","GP_ID":"197906204","MEAN_MOTION_DOT":"0.00002617","ELEMENT_SET_NO":"999","INCLINATION":"53.0549","COUNTRY_CODE":"US","MEAN_MOTION_DDOT":"0.0000000000000","SEMIMAJOR_AXIS":"6925.336","ARG_OF_PERICENTER":"73.3770","FILE":"3344863","BSTAR":"0.00019450000000","MEAN_ELEMENT_THEORY":"SGP4","APOAPSIS":"548.117","REF_FRAME":"TEME","REV_AT_EPOCH":"4288"},{"PERIAPSIS":"546.198","CLASSIFICATION_TYPE":"U","SITE":"AFETR","LAUNCH_DATE":"2021-05-26","EPOCH":"2022-03-04T16:12:48.548160","ECCENTRICITY":"0.00014420","MEAN_ANOMALY":"285.8478","CENTER_NAME":"EARTH","OBJECT_NAME":"STARLINK-2737","OBJECT_ID":"2021-044AP","PERIOD":"95.592","EPHEMERIS_TYPE":"0","DECAY_DATE":null,"NORAD_CAT_ID":"48675","RA_OF_ASC_NODE":"212.8169","TLE_LINE2":"2 48675  53.0542 212.8169 0001442  74.2670 285.8478 15.06405580 42885","ARG_OF_PERICENTER":"74.2670","SEMIMAJOR_AXIS":"6925.331","MEAN_MOTION_DDOT":"0.0000000000000","COUNTRY_CODE":"US","INCLINATION":"53.0542","REV_AT_EPOCH":"4288","APOAPSIS":"548.195","REF_FRAME":"TEME","MEAN_ELEMENT_THEORY":"SGP4","BSTAR":"0.00006819500000","FILE":"3344863","TIME_SYSTEM":"UTC","TLE_LINE1":"1 48675U 21044AP  22063.67556190  .00000735  00000-0  68195-4 0  9991","OBJECT_TYPE":"PAYLOAD","MEAN_MOTION":"15.06405580","RCS_SIZE":"LARGE","ELEMENT_SET_NO":"999","MEAN_MOTION_DOT":"0.00000735","GP_ID":"197906454"},{"GP_ID":"197906706","MEAN_MOTION_DOT":"0.00002706","ELEMENT_SET_NO":"999","RCS_SIZE":"LARGE","OBJECT_TYPE":"PAYLOAD","MEAN_MOTION":"15.06401862","TLE_LINE1":"1 48676U 21044AQ  22063.67188081  .00002706  00000-0  20050-3 0  9999","TIME_SYSTEM":"UTC","FILE":"3344863","REF_FRAME":"TEME","APOAPSIS":"548.182","MEAN_ELEMENT_THEORY":"SGP4","BSTAR":"0.00020050000000","REV_AT_EPOCH":"4288","MEAN_MOTION_DDOT":"0.0000000000000","INCLINATION":"53.0556","COUNTRY_CODE":"US","SEMIMAJOR_AXIS":"6925.343","ARG_OF_PERICENTER":"69.3158","TLE_LINE2":"2 48676  53.0556 212.8284 0001407  69.3158 290.7982 15.06401862 42880","RA_OF_ASC_NODE":"212.8284","NORAD_CAT_ID":"48676","DECAY_DATE":null,"EPHEMERIS_TYPE":"0","PERIOD":"95.592","ECCENTRICITY":"0.00014070","OBJECT_NAME":"STARLINK-2746","MEAN_ANOMALY":"290.7982","OBJECT_ID":"2021-044AQ","CENTER_NAME":"EARTH","EPOCH":"2022-03-04T16:07:30.501984","LAUNCH_DATE":"2021-05-26","CLASSIFICATION_TYPE":"U","SITE":"AFETR","PERIAPSIS":"546.233"},{"DECAY_DATE":null,"EPHEMERIS_TYPE":"0","TLE_LINE2":"2 48677  53.0547 212.2437 0001308  70.9396 289.1734 15.06397446 42909","RA_OF_ASC_NODE":"212.2437","NORAD_CAT_ID":"48677","EPOCH":"2022-03-04T19:13:17.422176","LAUNCH_DATE":"2021-05-26","SITE":"AFETR","CLASSIFICATION_TYPE":"U","PERIAPSIS":"546.316","PERIOD":"95.592","MEAN_ANOMALY":"289.1734","CENTER_NAME":"EARTH","OBJECT_NAME":"STARLINK-2719","OBJECT_ID":"2021-044AR","ECCENTRICITY":"0.00013080","RCS_SIZE":"LARGE","OBJECT_TYPE":"PAYLOAD","MEAN_MOTION":"15.06397446","TIME_SYSTEM":"UTC","TLE_LINE1":"1 48677U 21044AR  22063.80089609 -.00000565  00000-0 -19032-4 0  9993","GP_ID":"197906949","MEAN_MOTION_DOT":"-0.00000565","ELEMENT_SET_NO":"999","COUNTRY_CODE":"US","INCLINATION":"53.0547","MEAN_MOTION_DDOT":"0.0000000000000","SEMIMAJOR_AXIS":"6925.356","ARG_OF_PERICENTER":"70.9396","FILE":"3344863","BSTAR":"-0.00001903200000","APOAPSIS":"548.127","REF_FRAME":"TEME","MEAN_ELEMENT_THEORY":"SGP4","REV_AT_EPOCH":"4290"},{"ELEMENT_SET_NO":"999","MEAN_MOTION_DOT":"0.00001424","GP_ID":"197905705","TIME_SYSTEM":"UTC","TLE_LINE1":"1 48678U 21044AS  22063.79720889  .00001424  00000-0  11448-3 0  9999","MEAN_MOTION":"15.06400143","OBJECT_TYPE":"PAYLOAD","RCS_SIZE":"LARGE","REV_AT_EPOCH":"4290","APOAPSIS":"548.255","MEAN_ELEMENT_THEORY":"SGP4","REF_FRAME":"TEME","BSTAR":"0.00011448000000","FILE":"3344863","ARG_OF_PERICENTER":"74.4981","SEMIMAJOR_AXIS":"6925.348","MEAN_MOTION_DDOT":"0.0000000000000","COUNTRY_CODE":"US","INCLINATION":"53.0532","NORAD_CAT_ID":"48678","RA_OF_ASC_NODE":"212.2680","TLE_LINE2":"2 48678  53.0532 212.2680 0001505  74.4981 285.6174 15.06400143 42900","EPHEMERIS_TYPE":"0","DECAY_DATE":null,"ECCENTRICITY":"0.00015050","OBJECT_NAME":"STARLINK-2615","MEAN_ANOMALY":"285.6174","CENTER_NAME":"EARTH","OBJECT_ID":"2021-044AS","PERIOD":"95.592","PERIAPSIS":"546.171","CLASSIFICATION_TYPE":"U","SITE":"AFETR","LAUNCH_DATE":"2021-05-26","EPOCH":"2022-03-04T19:07:58.848096"},{"TLE_LINE2":"2 48679  53.0534 212.2881 0001360  81.2923 278.8220 15.06407131 42907","RA_OF_ASC_NODE":"212.2881","NORAD_CAT_ID":"48679","DECAY_DATE":null,"EPHEMERIS_TYPE":"0","PERIOD":"95.592","ECCENTRICITY":"0.00013600","MEAN_ANOMALY":"278.8220","OBJECT_NAME":"STARLINK-2648","CENTER_NAME":"EARTH","OBJECT_ID":"2021-044AT","EPOCH":"2022-03-04T19:02:39.670080","LAUNCH_DATE":"2021-05-26","CLASSIFICATION_TYPE":"U","SITE":"AFETR","PERIAPSIS":"546.250","GP_ID":"197905955","MEAN_MOTION_DOT":"0.00003575","ELEMENT_SET_NO":"999","RCS_SIZE":"LARGE","MEAN_MOTION":"15.06407131","OBJECT_TYPE":"PAYLOAD","TLE_LINE1":"1 48679U 21044AT  22063.79351470  .00003575  00000-0  25871-3 0  9990","TIME_SYSTEM":"UTC","FILE":"3344863","APOAPSIS":"548.134","MEAN_ELEMENT_THEORY":"SGP4","REF_FRAME":"TEME","BSTAR":"0.00025871000000","REV_AT_EPOCH":"4290","MEAN_MOTION_DDOT":"0.0000000000000","INCLINATION":"53.0534","COUNTRY_CODE":"US","SEMIMAJOR_AXIS":"6925.327","ARG_OF_PERICENTER":"81.2923"}];
